STARLINK-35342          
1 66181U 25243E   26185.63801695  .00061538  00000+0  18141-2 0  9997
2 66181  53.1597  61.7212 0002472  76.3276 283.8002 15.34459326 38566
STARLINK-35333          
1 66182U 25243F   26185.36485793  .00035515  00000+0  10565-2 0  9993
2 66182  53.1587  62.8589 0003434  77.2536 282.8850 15.34420451 38526
STARLINK-35310          
1 66183U 25243G   26185.08537182  .00042132  00000+0  12498-2 0  9993
2 66183  53.1581  63.9613 0000891  69.3237 290.7862 15.34432143 38482
STARLINK-35317          
1 66184U 25243H   26185.08958047  .00041818  00000+0  12407-2 0  9991
2 66184  53.1575  63.9883 0000951  78.5375 281.5734 15.34431759 38485
STARLINK-35377          
1 66185U 25243J   26185.93843586  .00049567  00000+0  14659-2 0  9997
2 66185  53.1581  60.0464 0001351 103.5268 256.5885 15.34456444 38613
STARLINK-35365          
1 66186U 25243K   26185.64432893  .00047631  00000+0  14103-2 0  9995
2 66186  53.1605  61.7652 0002127  71.0665 289.0569 15.34435838 38568
STARLINK-35350          
1 66187U 25243L   26185.66747188  .00060997  00000+0  17985-2 0  9995
2 66187  53.1598  61.9039 0002788  91.6299 268.5023 15.34455328 38568
STARLINK-35041          
1 66188U 25243M   26185.04969447  .00034223  00000+0  10187-2 0  9992
2 66188  53.1601  64.4511 0001189  82.5059 277.6078 15.34422462 38478
STARLINK-34694          
1 66189U 25243N   26185.08114012  .00033935  00000+0  11516-2 0  9993
2 66189  53.1583  64.6412 0001056 101.1165 258.9954 15.30229735 38478
STARLINK-34863          
1 66190U 25243P   26185.66326252  .00048206  00000+0  14270-2 0  9997
2 66190  53.1582  61.8765 0001008  88.7915 271.3203 15.34438472 38569
STARLINK-35061          
1 66191U 25243Q   26185.37958212  .00034278  00000+0  10200-2 0  9996
2 66191  53.1599  62.9558 0001291  67.0969 293.0170 15.34433027 38524
STARLINK-34937          
1 66192U 25243R   26185.68631649  .00054025  00000+0  15958-2 0  9990
2 66192  53.1587  61.3122 0002958  82.0229 278.1109 15.34453345 38575
STARLINK-35197          
1 66193U 25243S   26185.39504656  .00023890  00000+0  81520-3 0  9991
2 66193  53.1606  63.0422 0000632  60.6420 299.4644 15.30236797 38523
STARLINK-35374          
1 66194U 25243T   26185.65484722  .00059710  00000+0  19162-2 0  9994
2 66194  53.1567  61.1127 0002252  90.9013 269.2247 15.31771448 38572
STARLINK-34813          
1 66195U 25243U   26185.67369236  .00052692  00000+0  15572-2 0  9992
2 66195  53.1591  61.2329 0002216 107.5566 252.5679 15.34449709 38572
STARLINK-35409          
1 66196U 25243V   26185.07797651  .00031951  00000+0  10855-2 0  9997
2 66196  53.1587  64.6203 0001044 100.9452 259.1666 15.30224135 38473
STARLINK-35259          
1 66197U 25243W   26185.91670139  .00022625  00000+0  68026-3 0  9994
2 66197  53.1601  60.6009 0001655 110.9173 256.4933 15.34329200  5902
STARLINK-35518          
1 66198U 25243X   26185.37406153  .00033111  00000+0  11246-2 0  9991
2 66198  53.1594  63.6223 0001611  92.0241 268.0944 15.30213682 38519
STARLINK-35509          
1 66199U 25243Y   26185.39398671  .00042788  00000+0  14458-2 0  9997
2 66199  53.1602  63.0332 0000828 288.4801  71.6109 15.30259586 38522
STARLINK-35551          
1 66200U 25243Z   26185.65841431  .00037073  00000+0  12555-2 0  9993
2 66200  53.1578  61.8384 0001905 107.9788 252.1421 15.30252608 38561
STARLINK-35543          
1 66201U 25243AA  26185.08626932  .00027298  00000+0  88742-3 0  9998
2 66201  53.1579  63.9590 0000778  68.0319 292.0765 15.31729110 38482
STARLINK-35534          
1 66202U 25243AB  26185.07691939  .00030536  00000+0  10379-2 0  9996
2 66202  53.1586  64.6099 0001016 101.3124 258.7991 15.30230665 38474
STARLINK-35548          
1 66203U 25243AC  26185.66791029  .00043120  00000+0  14570-2 0  9993
2 66203  53.1576  61.8990 0002146  92.3477 267.7769 15.30255845 38568
STARLINK-35490          
1 66204U 25243AD  26185.64222210  .00067753  00000+0  19943-2 0  9990
2 66204  53.1581  61.7467 0002702  79.7383 280.3924 15.34461709 38562
STARLINK-35748          
1 66206U 25244A   26185.89523320  .00054623  00000+0  16132-2 0  9995
2 66206  53.1584  44.1321 0000831  83.2984 276.8113 15.34455529 39620
STARLINK-35747          
1 66207U 25244B   26185.86586386  .00041092  00000+0  12188-2 0  9997
2 66207  53.1596  44.6063 0002068  81.0567 279.0670 15.34447768 39617
STARLINK-35751          
1 66208U 25244C   26185.33848078  .00017881  00000+0  53870-3 0  9992
2 66208  53.1614  47.0565 0002371  80.8121 279.3150 15.34421494 39538
STARLINK-35750          
1 66209U 25244D   26185.32375063  .00025922  00000+0  77494-3 0  9994
2 66209  53.1583  46.9667 0001176  92.5809 267.5328 15.34430611 39537
STARLINK-35740          
1 66210U 25244E   26185.89733792  .00044017  00000+0  13041-2 0  9998
2 66210  53.1592  44.1431 0001161  94.0620 266.0515 15.34452134 39626
STARLINK-35723          
1 66211U 25244F   26185.33006672  .00043745  00000+0  12969-2 0  9993
2 66211  53.1592  47.0015 0001796  92.7317 267.3891 15.34433797 39523
