OBJECT_NAME,OBJECT_ID,EPOCH,MEAN_MOTION,ECCENTRICITY,INCLINATION,RA_OF_ASC_NODE,ARG_OF_PERICENTER,MEAN_ANOMALY,EPHEMERIS_TYPE,CLASSIFICATION_TYPE,NORAD_CAT_ID,ELEMENT_SET_NO,REV_AT_EPOCH,BSTAR,MEAN_MOTION_DOT,MEAN_MOTION_DDOT
STARLINK-35342,2025-243E,2026-07-04T15:18:44.664480,15.34459326,.00024727,53.1597,61.7212,76.3276,283.8002,0,U,66181,999,3856,.18140663E-2,.61538E-3,0
STARLINK-35333,2025-243F,2026-07-04T08:45:23.725152,15.34420451,.00034342,53.1587,62.8589,77.2536,282.8850,0,U,66182,999,3852,.10564812E-2,.35515E-3,0
STARLINK-35310,2025-243G,2026-07-04T02:02:56.125248,15.34432143,.0000891,53.1581,63.9613,69.3237,290.7862,0,U,66183,999,3848,.12498226E-2,.42132E-3,0
STARLINK-35317,2025-243H,2026-07-04T02:08:59.752608,15.34431759,.00009513,53.1575,63.9883,78.5375,281.5734,0,U,66184,999,3848,.12406755E-2,.41818E-3,0
STARLINK-35377,2025-243J,2026-07-04T22:31:20.858304,15.34456444,.0001351,53.1581,60.0464,103.5268,256.5885,0,U,66185,999,3861,.14658595E-2,.49567E-3,0
STARLINK-35365,2025-243K,2026-07-04T15:27:50.019552,15.34435838,.00021272,53.1605,61.7652,71.0665,289.0569,0,U,66186,999,3856,.14102686E-2,.47631E-3,0
STARLINK-35350,2025-243L,2026-07-04T16:01:09.570432,15.34455328,.00027888,53.1598,61.9039,91.6299,268.5023,0,U,66187,999,3856,.17985364E-2,.60997E-3,0
STARLINK-35041,2025-243M,2026-07-04T01:11:33.602208,15.34422462,.00011897,53.1601,64.4511,82.5059,277.6078,0,U,66188,999,3847,.10186743E-2,.34223E-3,0
STARLINK-34694,2025-243N,2026-07-04T01:56:50.506368,15.30229735,.00010562,53.1583,64.6412,101.1165,258.9954,0,U,66189,999,3847,.11515887E-2,.33935E-3,0
STARLINK-34863,2025-243P,2026-07-04T15:55:05.881728,15.34438472,.00010086,53.1582,61.8765,88.7915,271.3203,0,U,66190,999,3856,.14269826E-2,.48206E-3,0
STARLINK-35061,2025-243Q,2026-07-04T09:06:35.895168,15.34433027,.0001291,53.1599,62.9558,67.0969,293.0170,0,U,66191,999,3852,.10199502E-2,.34278E-3,0
STARLINK-34937,2025-243R,2026-07-04T16:28:17.744736,15.34453345,.00029585,53.1587,61.3122,82.0229,278.1109,0,U,66192,999,3857,.1595785E-2,.54025E-3,0
STARLINK-35197,2025-243S,2026-07-04T09:28:52.022784,15.30236797,.0000632,53.1606,63.0422,60.6420,299.4644,0,U,66193,999,3852,.81520292E-3,.2389E-3,0
STARLINK-35374,2025-243T,2026-07-04T15:42:58.799808,15.31771448,.00022523,53.1567,61.1127,90.9013,269.2247,0,U,66194,999,3857,.1916207E-2,.5971E-3,0
STARLINK-34813,2025-243U,2026-07-04T16:10:07.019904,15.34449709,.00022161,53.1591,61.2329,107.5566,252.5679,0,U,66195,999,3857,.15572199E-2,.52692E-3,0
STARLINK-35409,2025-243V,2026-07-04T01:52:17.170464,15.30224135,.00010442,53.1587,64.6203,100.9452,259.1666,0,U,66196,999,3847,.10854641E-2,.31951E-3,0
STARLINK-35259,2025-243W,2026-07-04T22:00:03.000096,15.34329200,.00016556,53.1601,60.6009,110.9173,256.4933,0,U,66197,999,590,.68025602E-3,.22625E-3,0
STARLINK-35518,2025-243X,2026-07-04T08:58:38.916192,15.30213682,.0001611,53.1594,63.6223,92.0241,268.0944,0,U,66198,999,3851,.11246025E-2,.33111E-3,0
STARLINK-35509,2025-243Y,2026-07-04T09:27:20.451744,15.30259586,.00008285,53.1602,63.0332,288.4801,71.6109,0,U,66199,999,3852,.14458323E-2,.42788E-3,0
STARLINK-35551,2025-243Z,2026-07-04T15:48:06.996384,15.30252608,.00019054,53.1578,61.8384,107.9788,252.1421,0,U,66200,999,3856,.12555175E-2,.37073E-3,0
STARLINK-35543,2025-243AA,2026-07-04T02:04:13.669248,15.31729110,.00007781,53.1579,63.9590,68.0319,292.0765,0,U,66201,999,3848,.88741815E-3,.27298E-3,0
STARLINK-35534,2025-243AB,2026-07-04T01:50:45.835296,15.30230665,.00010161,53.1586,64.6099,101.3124,258.7991,0,U,66202,999,3847,.10379102E-2,.30536E-3,0
STARLINK-35548,2025-243AC,2026-07-04T16:01:47.449056,15.30255845,.00021465,53.1576,61.8990,92.3477,267.7769,0,U,66203,999,3856,.14569993E-2,.4312E-3,0
STARLINK-35490,2025-243AD,2026-07-04T15:24:47.989440,15.34461709,.00027025,53.1581,61.7467,79.7383,280.3924,0,U,66204,999,3856,.19943317E-2,.67753E-3,0
STARLINK-35748,2025-244A,2026-07-04T21:29:08.148480,15.34455529,.00008315,53.1584,44.1321,83.2984,276.8113,0,U,66206,999,3962,.1613228E-2,.54623E-3,0
STARLINK-35747,2025-244B,2026-07-04T20:46:50.637504,15.34447768,.00020685,53.1596,44.6063,81.0567,279.0670,0,U,66207,999,3961,.12187819E-2,.41092E-3,0
STARLINK-35751,2025-244C,2026-07-04T08:07:24.739392,15.34421494,.00023713,53.1614,47.0565,80.8121,279.3150,0,U,66208,999,3953,.5387028E-3,.17881E-3,0
STARLINK-35750,2025-244D,2026-07-04T07:46:12.054432,15.34430611,.00011761,53.1583,46.9667,92.5809,267.5328,0,U,66209,999,3953,.77493565E-3,.25922E-3,0
STARLINK-35740,2025-244E,2026-07-04T21:32:09.996288,15.34452134,.00011612,53.1592,44.1431,94.0620,266.0515,0,U,66210,999,3962,.13041132E-2,.44017E-3,0
STARLINK-35723,2025-244F,2026-07-04T07:55:17.764608,15.34433797,.00017961,53.1592,47.0015,92.7317,267.3891,0,U,66211,999,3952,.12968885E-2,.43745E-3,0
